STARLINK-37998          
1 69679U 26145C   26199.25002315 -.00196898  00000+0 -13455-2 0  9992
2 69679  97.2836  46.2461 0001545  88.1202  71.9373 15.75263464  4910
STARLINK-37994          
1 69680U 26145D   26199.03263224  .00121992  00000+0  80404-3 0  9998
2 69680  97.2838  46.0140 0001343  71.1701 288.9709 15.75278728  3627
STARLINK-37992          
1 69681U 26145E   26199.03227339  .00119856  00000+0  79137-3 0  9993
2 69681  97.2834  46.0142 0000341 108.8497 251.2806 15.75244089  3627
STARLINK-37997          
1 69682U 26145F   26198.00002315 -.00003501  00000+0 -22625-4 0  9997
2 69682  97.2838  44.9322 0001192  99.5818 174.9569 15.75175815  4715
STARLINK-37990          
1 69683U 26145G   26199.03192702  .00194822  00000+0  12731-2 0  9992
2 69683  97.2832  46.0136 0001494  81.8202 278.3233 15.75268927  3625
STARLINK-37951          
1 69684U 26145H   26199.25002315 -.00037386  00000+0 -25119-3 0  9995
2 69684  97.2837  46.2461 0001424  85.3996  76.6629 15.75161591  4916
STARLINK-37957          
1 69685U 26145J   26199.09332891  .00178166  00000+0  11726-2 0  9991
2 69685  97.2834  46.0833 0001046  88.3285 271.8100 15.75150670  3636
STARLINK-37968          
1 69686U 26145K   26199.08733737  .00157022  00000+0  10349-2 0  9993
2 69686  97.2841  46.0928 0001845  89.8359 270.3118 15.75178214  3632
STARLINK-37977          
1 69687U 26145L   26199.15015860  .00092718  00000+0  61579-3 0  9994
2 69687  97.2826  46.1603 0001732  87.5423 272.6040 15.75188404  3641
STARLINK-37908          
1 69688U 26145M   26199.02098493  .00219435  00000+0  14325-2 0  9997
2 69688  97.2836  46.0301 0001682  78.6283 281.5171 15.75224120  3624
STARLINK-37979          
1 69689U 26145N   26199.02063226  .00134541  00000+0  88670-3 0  9993
2 69689  97.2852  46.0308 0001313  81.3889 278.7525 15.75243581  3627
STARLINK-37940          
1 69690U 26145P   26199.08310577  .00206266  00000+0  13387-2 0  9991
2 69690  97.2842  46.0992 0004687  57.8817 302.2903 15.75385283  3633
STARLINK-37961          
1 69691U 26145Q   26199.14345153  .00213652  00000+0  13974-2 0  9996
2 69691  97.2832  46.1684 0001176  95.6885 264.4514 15.75195820  3641
STARLINK-37787          
1 69692U 26145R   26199.07781119  .00126187  00000+0  83462-3 0  9991
2 69692  97.2850  46.1064 0002497  81.9595 278.1953 15.75182809  3638
STARLINK-37962          
1 69693U 26145S   26199.13957055  .00122046  00000+0  80759-3 0  9999
2 69693  97.2836  46.1744 0001377  74.7964 285.3453 15.75186801  3646
STARLINK-37953          
1 69694U 26145T   26199.07887112  .00118802  00000+0  78674-3 0  9997
2 69694  97.2854  46.1049 0003132  78.0639 282.0977 15.75173894  3634
STARLINK-37926          
1 69695U 26145U   26199.07816395  .00180246  00000+0  11842-2 0  9997
2 69695  97.2844  46.1057 0002112  78.8052 281.3451 15.75184641  3638
STARLINK-37959          
1 69696U 26145V   26199.14063000  .00122903  00000+0  81336-3 0  9995
2 69696  97.2836  46.1719 0001719  70.1717 289.9734 15.75180933  3649
STARLINK-37976          
1 69697U 26145W   26199.13779952  .00114218  00000+0  75520-3 0  9993
2 69697  97.2833  46.1762 0000880 106.1011 254.0351 15.75228226  3646
STARLINK-37912          
1 69698U 26145X   26199.07321589  .00080871  00000+0  53674-3 0  9999
2 69698  97.2839  46.1120 0000675 155.3532 204.7765 15.75242318  3635
STARLINK-37974          
1 69699U 26145Y   26199.13603986  .00132647  00000+0  87501-3 0  9996
2 69699  97.2834  46.1790 0000803 101.6018 258.5337 15.75228046  3645
STARLINK-37955          
1 69700U 26145Z   26199.19709819  .00121963  00000+0  80576-3 0  9991
2 69700  97.2850  46.2506 0001783  84.4548 275.6921 15.75223118  3651
STRIX-8                 
1 69701U 26146A   26199.27280440  .00002189  00000+0  16732-3 0  9997
2 69701  41.9907 356.0444 0006731  44.5812 315.5556 15.04449216  3247
ELECTRON R/B            
1 69702U 26146B   26198.76604655  .00396064  57822-4  92609-3 0  9993
2 69702  42.0718 346.7898 0161566  38.4259 322.7976 15.77324602  3319
ELECTRON KICK STAGE R/B 
1 69703U 26146C   26198.80087389  .00001873  00000+0  14320-3 0  9994
2 69703  41.9887 358.5603 0008606  42.1509 317.9979 15.04953966  3179
STARLINK-38055          
1 69704U 26147A   26199.08108269  .00162601  00000+0  83366-3 0  9991
2 69704  97.2831 235.6347 0000500  13.2934 346.8347 15.80822600  4310
STARLINK-37898          
1 69705U 26147B   26199.08026056  .00184427  00000+0  94270-3 0  9991
2 69705  97.2825 235.6361 0001769   4.5867 355.5417 15.80831126  4314
STARLINK-37970          
1 69706U 26147C   26199.07950747  .00150030  00000+0  77038-3 0  9990
2 69706  97.2817 235.6370 0000744  51.1888 308.9447 15.80822749  4315
STARLINK-37975          
1 69707U 26147D   26199.07875609  .00149096  00000+0  76554-3 0  9996
2 69707  97.2824 235.6379 0000831  21.1682 338.9620 15.80826286  4315
STARLINK-37972          
1 69708U 26147E   26199.07800514  .00148721  00000+0  76385-3 0  9996
2 69708  97.2827 235.6398 0000868  31.1891 328.9428 15.80820685  4315
