OBJECT_NAME,OBJECT_ID,EPOCH,MEAN_MOTION,ECCENTRICITY,INCLINATION,RA_OF_ASC_NODE,ARG_OF_PERICENTER,MEAN_ANOMALY,EPHEMERIS_TYPE,CLASSIFICATION_TYPE,NORAD_CAT_ID,ELEMENT_SET_NO,REV_AT_EPOCH,BSTAR,MEAN_MOTION_DOT,MEAN_MOTION_DDOT
STARLINK-37998,2026-145C,2026-07-18T06:00:02.000160,15.75263464,.00015456,97.2836,46.2461,88.1202,71.9373,0,U,69679,999,491,-.1345475E-2,-.196898E-2,0
STARLINK-37994,2026-145D,2026-07-18T00:46:59.425536,15.75278728,.00013435,97.2838,46.0140,71.1701,288.9709,0,U,69680,999,362,.80403624E-3,.121992E-2,0
STARLINK-37992,2026-145E,2026-07-18T00:46:28.420896,15.75244089,.00003417,97.2834,46.0142,108.8497,251.2806,0,U,69681,999,362,.79136664E-3,.119856E-2,0
STARLINK-37997,2026-145F,2026-07-17T00:00:02.000160,15.75175815,.00011924,97.2838,44.9322,99.5818,174.9569,0,U,69682,999,471,-.22624739E-4,-.3501E-4,0
STARLINK-37990,2026-145G,2026-07-18T00:45:58.494528,15.75268927,.00014944,97.2832,46.0136,81.8202,278.3233,0,U,69683,999,362,.12731147E-2,.194822E-2,0
STARLINK-37951,2026-145H,2026-07-18T06:00:02.000160,15.75161591,.00014241,97.2837,46.2461,85.3996,76.6629,0,U,69684,999,491,-.25118551E-3,-.37386E-3,0
STARLINK-37957,2026-145J,2026-07-18T02:14:23.617824,15.75150670,.00010465,97.2834,46.0833,88.3285,271.8100,0,U,69685,999,363,.11726163E-2,.178166E-2,0
STARLINK-37968,2026-145K,2026-07-18T02:05:45.948768,15.75178214,.00018452,97.2841,46.0928,89.8359,270.3118,0,U,69686,999,363,.10348784E-2,.157022E-2,0
STARLINK-37977,2026-145L,2026-07-18T03:36:13.703040,15.75188404,.00017321,97.2826,46.1603,87.5423,272.6040,0,U,69687,999,364,.61579125E-3,.92718E-3,0
STARLINK-37908,2026-145M,2026-07-18T00:30:13.097952,15.75224120,.00016825,97.2836,46.0301,78.6283,281.5171,0,U,69688,999,362,.14324506E-2,.219435E-2,0
STARLINK-37979,2026-145N,2026-07-18T00:29:42.627264,15.75243581,.00013136,97.2852,46.0308,81.3889,278.7525,0,U,69689,999,362,.88669588E-3,.134541E-2,0
STARLINK-37940,2026-145P,2026-07-18T01:59:40.338528,15.75385283,.00046875,97.2842,46.0992,57.8817,302.2903,0,U,69690,999,363,.13387316E-2,.206266E-2,0
STARLINK-37961,2026-145Q,2026-07-18T03:26:34.212192,15.75195820,.00011769,97.2832,46.1684,95.6885,264.4514,0,U,69691,999,364,.13973917E-2,.213652E-2,0
STARLINK-37787,2026-145R,2026-07-18T01:52:02.886816,15.75182809,.00024978,97.2850,46.1064,81.9595,278.1953,0,U,69692,999,363,.83462332E-3,.126187E-2,0
STARLINK-37962,2026-145S,2026-07-18T03:20:58.895520,15.75186801,.00013771,97.2836,46.1744,74.7964,285.3453,0,U,69693,999,364,.80758995E-3,.122046E-2,0
STARLINK-37953,2026-145T,2026-07-18T01:53:34.464768,15.75173894,.00031323,97.2854,46.1049,78.0639,282.0977,0,U,69694,999,363,.78674407E-3,.118802E-2,0
STARLINK-37926,2026-145U,2026-07-18T01:52:33.365280,15.75184641,.00021123,97.2844,46.1057,78.8052,281.3451,0,U,69695,999,363,.11842163E-2,.180246E-2,0
STARLINK-37959,2026-145V,2026-07-18T03:22:30.432000,15.75180933,.00017199,97.2836,46.1719,70.1717,289.9734,0,U,69696,999,364,.81336288E-3,.122903E-2,0
STARLINK-37976,2026-145W,2026-07-18T03:18:25.878528,15.75228226,.00008809,97.2833,46.1762,106.1011,254.0351,0,U,69697,999,364,.75519765E-3,.114218E-2,0
STARLINK-37912,2026-145X,2026-07-18T01:45:25.852896,15.75242318,.00006751,97.2839,46.1120,155.3532,204.7765,0,U,69698,999,363,.53673704E-3,.80871E-3,0
STARLINK-37974,2026-145Y,2026-07-18T03:15:53.843904,15.75228046,.00008036,97.2834,46.1790,101.6018,258.5337,0,U,69699,999,364,.87501452E-3,.132647E-2,0
STARLINK-37955,2026-145Z,2026-07-18T04:43:49.283616,15.75223118,.00017838,97.2850,46.2506,84.4548,275.6921,0,U,69700,999,365,.80576274E-3,.121963E-2,0
STRIX-8,2026-146A,2026-07-18T06:32:50.300160,15.04449216,.00067319,41.9907,356.0444,44.5812,315.5556,0,U,69701,999,324,.16732192E-3,.2189E-4,0
ELECTRON R/B,2026-146B,2026-07-17T18:23:06.421920,15.77324602,.01615665,42.0718,346.7898,38.4259,322.7976,0,U,69702,999,331,.92609454E-3,.396064E-2,.57822482E-4
ELECTRON KICK STAGE R/B,2026-146C,2026-07-17T19:13:15.504096,15.04953966,.00086065,41.9887,358.5603,42.1509,317.9979,0,U,69703,999,317,.14320424E-3,.1873E-4,0
STARLINK-38055,2026-147A,2026-07-18T01:56:45.544416,15.80822600,.00005005,97.2831,235.6347,13.2934,346.8347,0,U,69704,999,431,.83365559E-3,.162601E-2,0
STARLINK-37898,2026-147B,2026-07-18T01:55:34.512384,15.80831126,.0001769,97.2825,235.6361,4.5867,355.5417,0,U,69705,999,431,.94269541E-3,.184427E-2,0
STARLINK-37970,2026-147C,2026-07-18T01:54:29.445408,15.80822749,.00007448,97.2817,235.6370,51.1888,308.9447,0,U,69706,999,431,.77037717E-3,.15003E-2,0
STARLINK-37975,2026-147D,2026-07-18T01:53:24.526176,15.80826286,.00008314,97.2824,235.6379,21.1682,338.9620,0,U,69707,999,431,.76554011E-3,.149096E-2,0
STARLINK-37972,2026-147E,2026-07-18T01:52:19.644096,15.80820685,.00008685,97.2827,235.6398,31.1891,328.9428,0,U,69708,999,431,.76384903E-3,.148721E-2,0
